NORAD_CAT_ID,OBJECT_NAME,OBJECT_TYPE,EPOCH,MEAN_MOTION,ECCENTRICITY,INCLINATION,RA_OF_ASC_NODE,ARG_OF_PERICENTER,MEAN_ANOMALY,BSTAR,MEAN_MOTION_DOT,MEAN_MOTION_DDOT,TLE_LINE0,TLE_LINE1,TLE_LINE2,SEMIMAJOR_AXIS,PERIOD,APOGEE,PERIGEE,DECAYED
56781.0,STARLINK-5989,PAYLOAD,2023-11-07 03:10:06,14.9830477,0.000271,69.9997,336.6524,270.4741,89.6108,-0.00030554,-3.734e-05,0.0,0 STARLINK-5989,1 56781U 23078Q   23311.13202116 -.00003734  00000-0 -30554-3 0  9992,2 56781  69.9997 336.6524 0002710 270.4741  89.6108 14.98304770 25082,6950.271,96.109,574.019,570.252,0.0
56781.0,STARLINK-5989,PAYLOAD,2023-11-07 11:10:47,14.98304342,0.000277,69.9995,335.8108,273.2176,86.8666,-0.00028239,-3.458e-05,0.0,0 STARLINK-5989,1 56781U 23078Q   23311.46582585 -.00003458  00000-0 -28239-3 0  9999,2 56781  69.9995 335.8108 0002770 273.2176  86.8666 14.98304342 24877,6950.272,96.109,574.062,570.212,0.0
56781.0,STARLINK-5989,PAYLOAD,2023-11-07 19:11:26,14.98320665,0.0002936,70.0002,334.9682,272.1336,87.9487,-0.00011855,-1.507e-05,0.0,0 STARLINK-5989,1 56781U 23078Q   23311.79961365 -.00001507  00000-0 -11855-3 0  9991,2 56781  70.0002 334.9682 0002936 272.1336  87.9487 14.98320665 25180,6950.222,96.108,574.127,570.046,0.0
56781.0,STARLINK-5989,PAYLOAD,2023-11-08 03:12:06,14.98331321,0.0002735,70.0,334.1284,271.9886,88.096,-1.8243e-05,-3.11e-06,0.0,0 STARLINK-5989,1 56781U 23078Q   23312.13340651 -.00000311  00000-0 -18243-4 0  9990,2 56781  70.0000 334.1284 0002735 271.9886  88.0960 14.98331321 25237,6950.189,96.107,573.955,570.153,0.0
56781.0,STARLINK-5989,PAYLOAD,2023-11-08 12:48:54,14.98335031,0.0002277,70.0006,333.1186,276.0422,84.0478,5.3395e-05,5.44e-06,0.0,0 STARLINK-5989,1 56781U 23078Q   23312.53396315  .00000544  00000-0  53395-4 0  9995,2 56781  70.0006 333.1186 0002277 276.0422  84.0478 14.98335031 25036,6950.177,96.107,573.625,570.46,0.0
56781.0,STARLINK-5989,PAYLOAD,2023-11-08 19:13:26,14.98331953,0.0001482,70.0016,332.4478,279.6264,80.4727,0.00019717,2.261e-05,0.0,0 STARLINK-5989,1 56781U 23078Q   23312.80100365  .00002261  00000-0  19717-3 0  9990,2 56781  70.0016 332.4478 0001482 279.6264  80.4727 14.98331953 25073,6950.187,96.107,573.082,571.022,0.0
56781.0,STARLINK-5989,PAYLOAD,2023-11-09 03:14:06,14.98325495,0.0002455,70.0019,331.606,274.8622,85.2257,0.00040969,4.798e-05,0.0,0 STARLINK-5989,1 56781U 23078Q   23313.13479752  .00004798  00000-0  40969-3 0  9996,2 56781  70.0019 331.6060 0002455 274.8622  85.2257 14.98325495 25389,6950.207,96.107,573.778,570.366,0.0
56781.0,STARLINK-5989,PAYLOAD,2023-11-09 11:14:46,14.98325885,0.0002398,70.0006,330.7636,268.2095,91.8789,0.00037921,4.434e-05,0.0,0 STARLINK-5989,1 56781U 23078Q   23313.46859854  .00004434  00000-0  37921-3 0  9998,2 56781  70.0006 330.7636 0002398 268.2095  91.8789 14.98325885 25174,6950.206,96.107,573.737,570.404,0.0
56781.0,STARLINK-5989,PAYLOAD,2023-11-10 03:16:10,14.98303843,0.0002832,70.0013,329.0814,275.0176,85.066,-0.00032079,-3.916e-05,0.0,0 STARLINK-5989,1 56781U 23078Q   23314.13623086 -.00003916  00000-0 -32079-3 0  9994,2 56781  70.0013 329.0814 0002832 275.0176  85.0660 14.98303843 25533,6950.274,96.109,574.107,570.17,0.0
56781.0,STARLINK-5989,PAYLOAD,2023-11-10 11:16:51,14.9830414,0.0002441,69.9997,328.2355,266.6155,93.4725,-0.00037421,-4.552e-05,0.0,0 STARLINK-5989,1 56781U 23078Q   23314.47003621 -.00004552  00000-0 -37421-3 0  9991,2 56781  69.9997 328.2355 0002441 266.6155  93.4725 14.98304140 25324,6950.273,96.109,573.834,570.441,0.0
56781.0,STARLINK-5989,PAYLOAD,2023-11-11 03:18:10,14.98330965,0.0002234,70.0022,326.5557,280.4859,79.6048,-0.00015409,-1.931e-05,0.0,0 STARLINK-5989,1 56781U 23078Q   23315.13761816 -.00001931  00000-0 -15409-3 0  9992,2 56781  70.0022 326.5557 0002234 280.4859  79.6048 14.98330965 25683,6950.19,96.107,573.608,570.502,0.0
56781.0,STARLINK-5989,PAYLOAD,2023-11-11 11:18:49,14.98334695,0.0002103,69.9999,325.7108,265.7874,94.3044,-4.3099e-05,-6.07e-06,0.0,0 STARLINK-5989,1 56781U 23078Q   23315.47141190 -.00000607  00000-0 -43099-4 0  9992,2 56781  69.9999 325.7108 0002103 265.7874  94.3044 14.98334695 25734,6950.178,96.107,573.505,570.582,0.0
56781.0,STARLINK-5989,PAYLOAD,2023-11-11 17:43:21,14.98340212,0.0002073,70.0,325.0379,268.0167,92.0754,6.4607e-06,-1.6e-07,0.0,0 STARLINK-5989,1 56781U 23078Q   23315.73844593 -.00000016  00000-0  64607-5 0  9990,2 56781  70.0000 325.0379 0002073 268.0167  92.0754 14.98340212 25511,6950.161,96.106,573.467,570.586,0.0
56781.0,STARLINK-5989,PAYLOAD,2023-11-12 09:44:41,14.98325271,0.0002096,70.0,323.3532,254.6222,105.4705,0.00043179,5.062e-05,0.0,0 STARLINK-5989,1 56781U 23078Q   23316.40604164  .00005062  00000-0  43179-3 0  9997,2 56781  70.0000 323.3532 0002096 254.6222 105.4705 14.98325271 25615,6950.208,96.107,573.529,570.616,0.0
56781.0,STARLINK-5989,PAYLOAD,2023-11-13 03:22:10,14.98336022,0.0002265,69.9996,321.5021,268.6861,91.4039,-5.0563e-06,-1.53e-06,0.0,0 STARLINK-5989,1 56781U 23078Q   23317.14040420 -.00000153  00000-0 -50563-5 0  9993,2 56781  69.9996 321.5021 0002265 268.6861  91.4039 14.98336022 25981,6950.174,96.107,573.613,570.465,0.0
56781.0,STARLINK-5989,PAYLOAD,2023-11-13 11:22:50,14.98346489,0.0002015,69.9998,320.6589,272.0377,88.0551,-1.8012e-06,-1.14e-06,0.0,0 STARLINK-5989,1 56781U 23078Q   23317.47419551 -.00000114  00000-0 -18012-5 0  9994,2 56781  69.9998 320.6589 0002015 272.0377  88.0551 14.98346489 26032,6950.142,96.106,573.407,570.606,0.0
56781.0,STARLINK-5989,PAYLOAD,2023-11-14 03:24:11,14.98339512,0.0002293,69.9986,318.9764,261.4458,98.6441,-0.00013053,-1.65e-05,0.0,0 STARLINK-5989,1 56781U 23078Q   23318.14179752 -.00001650  00000-0 -13053-3 0  9999,2 56781  69.9986 318.9764 0002293 261.4458  98.6441 14.98339512 26139,6950.163,96.106,573.622,570.435,0.0
56781.0,STARLINK-5989,PAYLOAD,2023-11-14 09:48:43,14.98339943,0.0001963,69.9991,318.3017,274.5469,85.5466,-0.00014987,-1.881e-05,0.0,0 STARLINK-5989,1 56781U 23078Q   23318.40883744 -.00001881  00000-0 -14987-3 0  9994,2 56781  69.9991 318.3017 0001963 274.5469  85.5466 14.98339943 25915,6950.162,96.106,573.391,570.663,0.0
56781.0,STARLINK-5989,PAYLOAD,2023-11-14 17:49:23,14.98335528,0.0002345,70.0001,317.4608,270.3308,89.7582,-0.0001097,-1.402e-05,0.0,0 STARLINK-5989,1 56781U 23078Q   23318.74263599 -.00001402  00000-0 -10970-3 0  9998,2 56781  70.0001 317.4608 0002345 270.3308  89.7582 14.98335528 25962,6950.176,96.107,573.671,570.411,0.0
56781.0,STARLINK-5989,PAYLOAD,2023-11-15 03:26:11,14.98334281,0.0001971,69.9993,316.4505,244.8419,115.2536,-3.2288e-05,-4.78e-06,0.0,0 STARLINK-5989,1 56781U 23078Q   23319.14319258 -.00000478  00000-0 -32288-4 0  9996,2 56781  69.9993 316.4505 0001971 244.8419 115.2536 14.98334281 26282,6950.18,96.107,573.415,570.675,0.0
56781.0,STARLINK-5989,PAYLOAD,2023-11-15 09:50:44,14.98331466,0.000213,69.9994,315.7773,271.3637,88.7278,-4.1003e-05,-5.82e-06,0.0,0 STARLINK-5989,1 56781U 23078Q   23319.41023531 -.00000582  00000-0 -41003-4 0  9993,2 56781  69.9994 315.7773 0002130 271.3637  88.7278 14.98331466 26062,6950.188,96.107,573.534,570.573,0.0
56781.0,STARLINK-5989,PAYLOAD,2023-11-15 17:51:24,14.9833211,0.0001883,70.0002,314.9362,285.9142,74.1809,-5.1073e-05,-7.02e-06,0.0,0 STARLINK-5989,1 56781U 23078Q   23319.74403681 -.00000702  00000-0 -51073-4 0  9999,2 56781  70.0002 314.9362 0001883 285.9142  74.1809 14.98332110 26376,6950.186,96.107,573.36,570.743,0.0
56781.0,STARLINK-5989,PAYLOAD,2023-11-16 09:52:45,14.98331261,0.0002374,69.9991,313.2535,274.6064,85.4824,3.5503e-05,3.31e-06,0.0,0 STARLINK-5989,1 56781U 23078Q   23320.41163277  .00000331  00000-0  35503-4 0  9995,2 56781  69.9991 313.2535 0002374 274.6064  85.4824 14.98331261 26219,6950.189,96.107,573.704,570.404,0.0
56781.0,STARLINK-5989,PAYLOAD,2023-11-16 22:41:49,14.98347582,0.0001693,69.9997,311.9062,278.9216,81.1751,-0.00025928,-3.186e-05,0.0,0 STARLINK-5989,1 56781U 23078Q   23320.94571299 -.00003186  00000-0 -25928-3 0  9992,2 56781  69.9997 311.9062 0001693 278.9216  81.1751 14.98347582 26297,6950.139,96.106,573.18,570.827,0.0
56781.0,STARLINK-5989,PAYLOAD,2023-11-17 00:17:57,14.98347069,0.0001711,69.9997,311.7378,279.6097,80.4868,-0.00026637,-3.271e-05,0.0,0 STARLINK-5989,1 56781U 23078Q   23321.01247288 -.00003271  00000-0 -26637-3 0  9992,2 56781  69.9997 311.7378 0001711 279.6097  80.4868 14.98347069 26562,6950.14,96.106,573.194,570.816,0.0
56781.0,STARLINK-5989,PAYLOAD,2023-11-17 09:54:45,14.98354769,0.0001286,70.0003,310.7274,273.8306,86.2706,-0.00049878,-6.042e-05,0.0,0 STARLINK-5989,1 56781U 23078Q   23321.41303082 -.00006042  00000-0 -49878-3 0  9992,2 56781  70.0003 310.7274 0001286 273.8306  86.2706 14.98354769 26361,6950.116,96.105,572.875,571.088,0.0
56781.0,STARLINK-5989,PAYLOAD,2023-11-17 16:19:18,14.9832504,0.0002101,70.0003,310.0537,274.5093,85.5826,8.5908e-05,9.32e-06,0.0,0 STARLINK-5989,1 56781U 23078Q   23321.68007587  .00000932  00000-0  85908-4 0  9997,2 56781  70.0003 310.0537 0002101 274.5093  85.5826 14.98325040 26662,6950.208,96.107,573.533,570.613,0.0
56781.0,STARLINK-5989,PAYLOAD,2023-11-18 03:32:14,14.98336469,0.0002161,69.9999,308.8757,260.5932,99.4983,3.3559e-05,3.08e-06,0.0,0 STARLINK-5989,1 56781U 23078Q   23322.14738837  .00000308  00000-0  33559-4 0  9990,2 56781  69.9999 308.8757 0002161 260.5932  99.4983 14.98336469 26738,6950.173,96.107,573.54,570.536,0.0
56781.0,STARLINK-5989,PAYLOAD,2023-11-18 08:20:39,14.98317117,0.0002204,69.9995,308.3704,259.4759,100.6151,0.00018532,2.118e-05,0.0,0 STARLINK-5989,1 56781U 23078Q   23322.34767659  .00002118  00000-0  18532-3 0  9990,2 56781  69.9995 308.3704 0002204 259.4759 100.6151 14.98317117 26767,6950.233,96.108,573.63,570.566,0.0
56781.0,STARLINK-5989,PAYLOAD,2023-11-18 16:21:18,14.98347118,0.0002302,69.9997,307.5283,276.8045,83.2852,-0.00032833,-4.01e-05,0.0,0 STARLINK-5989,1 56781U 23078Q   23322.68146989 -.00004010  00000-0 -32833-3 0  9999,2 56781  69.9997 307.5283 0002302 276.8045  83.2852 14.98347118 26816,6950.14,96.106,573.605,570.405,0.0
